[{"OBJECT_NAME":"SHIJIAN-16 (SJ-16)","OBJECT_ID":"2013-057A","EPOCH":"2026-03-09T23:08:29.723424","MEAN_MOTION":14.92346393,"ECCENTRICITY":0.00154796,"INCLINATION":74.9735,"RA_OF_ASC_NODE":184.568,"ARG_OF_PERICENTER":111.8205,"MEAN_ANOMALY":248.4632,"EPHEMERIS_TYPE":0,"CLASSIFICATION_TYPE":"U","NORAD_CAT_ID":39358,"ELEMENT_SET_NO":999,"REV_AT_EPOCH":67154,"BSTAR":5.6936716e-5,"MEAN_MOTION_DOT":5.54e-6,"MEAN_MOTION_DDOT":0},{"OBJECT_NAME":"ARCTIC WEATHER SATELLITE","OBJECT_ID":"2024-149CD","EPOCH":"2026-03-09T17:59:50.988480","MEAN_MOTION":14.89807185,"ECCENTRICITY":0.00036824,"INCLINATION":97.6882,"RA_OF_ASC_NODE":142.0249,"ARG_OF_PERICENTER":84.5816,"MEAN_ANOMALY":275.5822,"EPHEMERIS_TYPE":0,"CLASSIFICATION_TYPE":"U","NORAD_CAT_ID":60543,"ELEMENT_SET_NO":999,"REV_AT_EPOCH":8449,"BSTAR":-0.00043535777,"MEAN_MOTION_DOT":-4.227e-5,"MEAN_MOTION_DDOT":0}]
